OBJECT_NAME,OBJECT_ID,EPOCH,MEAN_MOTION,ECCENTRICITY,INCLINATION,RA_OF_ASC_NODE,ARG_OF_PERICENTER,MEAN_ANOMALY,EPHEMERIS_TYPE,CLASSIFICATION_TYPE,NORAD_CAT_ID,ELEMENT_SET_NO,REV_AT_EPOCH,BSTAR,MEAN_MOTION_DOT,MEAN_MOTION_DDOT
STARLINK-37490,2026-133T,2026-06-16T20:00:01.999872,16.13914209,.00003097,53.1603,324.7530,67.9827,122.5858,0,U,69525,999,185,-.79401279E-3,-.100464E-1,.39571646E-3
STARLINK-37438,2026-133U,2026-06-16T20:00:01.999872,16.13632337,.00010813,53.1605,324.7565,68.3314,120.7250,0,U,69526,999,185,-.81006105E-3,-.1005097E-1,.39455969E-3
STARLINK-37484,2026-133V,2026-06-16T20:00:01.999872,16.14078858,.00011407,53.1603,324.7475,75.0379,118.2081,0,U,69527,999,185,-.74634287E-3,-.955979E-2,.36255017E-3
STARLINK-37523,2026-133W,2026-06-16T20:00:01.999872,16.14240122,.00003549,53.1603,324.7436,70.1450,124.9178,0,U,69528,999,185,-.74690941E-3,-.967338E-2,.3711673E-3
STARLINK-37369,2026-133X,2026-06-16T20:00:01.999872,16.14409735,.00001853,53.1601,324.7398,75.1797,121.6801,0,U,69529,999,185,-.74521069E-3,-.97659E-2,.3784699E-3
STARLINK-37670,2026-133Y,2026-06-16T20:00:01.999872,16.14740465,.00010752,53.1601,324.7372,51.9906,146.2557,0,U,69530,999,185,-.73063899E-3,-.980171E-2,.38269117E-3
STARLINK-37897,2026-133Z,2026-06-16T20:00:01.999872,16.14930206,.00005086,53.1600,324.7311,53.8026,147.1888,0,U,69531,999,180,-.68108711E-3,-.926664E-2,.34668811E-3
STARLINK-37933,2026-133AA,2026-06-16T20:00:01.999872,16.15245283,.00007826,53.1600,324.7281,42.8798,159.4933,0,U,69532,999,180,-.63675462E-3,-.886527E-2,.32147499E-3
STARLINK-37890,2026-133AB,2026-06-16T20:00:01.999872,16.15411532,.00010329,53.1602,324.7245,46.6878,157.4438,0,U,69533,999,180,-.60795836E-3,-.856953E-2,.3031286E-3
STARLINK-37407,2026-133AC,2026-06-16T20:00:01.999872,16.15669586,.0000981,53.1599,324.7177,45.8632,161.2867,0,U,69534,999,185,-.62947556E-3,-.903262E-2,.33442642E-3
STARLINK-37888,2026-133AD,2026-06-16T20:00:01.999872,16.15885874,.00009698,53.1601,324.7146,38.7978,169.9340,0,U,69535,999,180,-.56441739E-3,-.823564E-2,.28408493E-3
STARLINK-37889,2026-133AE,2026-06-16T20:00:01.999872,16.12684030,.00006658,53.1620,324.7749,67.0979,113.3950,0,U,69536,999,180,-.94934772E-3,-.1101886E-1,.46030746E-3
2026-134A,2026-134A,2026-06-16T17:23:06.260928,15.09200639,.00141542,97.7003,237.8242,273.9919,85.9691,0,U,69538,999,24,.41007631E-4,.587E-5,0
2026-134B,2026-134B,2026-06-16T17:22:52.264128,15.09360646,.00144875,97.6974,237.8233,276.4553,83.5026,0,U,69539,999,23,.83138065E-4,.1264E-4,0
2026-134C,2026-134C,2026-06-16T17:22:49.723968,15.09388935,.0013786,97.6988,237.8231,277.2768,82.6893,0,U,69540,999,23,.83187011E-4,.1265E-4,0
2026-134D,2026-134D,2026-06-16T17:22:44.304960,15.09445295,.00148404,97.7025,237.8255,276.5336,83.4203,0,U,69541,999,23,.83078072E-4,.1266E-4,0
2026-134E,2026-134E,2026-06-16T17:22:42.407616,15.09467803,.00146582,97.7041,237.8242,277.3931,82.5632,0,U,69542,999,23,.83105574E-4,.1267E-4,0
2026-134F,2026-134F,2026-06-16T17:22:38.568864,15.09514165,.00139127,97.6997,237.8242,279.0587,80.9067,0,U,69543,999,23,.83160067E-4,.1269E-4,0
2026-134G,2026-134G,2026-06-16T17:22:31.040832,15.09597497,.00143734,97.7039,237.8238,280.6343,79.3267,0,U,69544,999,23,.83062569E-4,.1271E-4,0
2026-134H,2026-134H,2026-06-16T17:22:25.300416,15.09663011,.00142577,97.7027,237.8253,282.3147,77.6485,0,U,69545,999,22,.83079471E-4,.1274E-4,0
SHIJIAN-31,2026-136A,2026-06-16T20:21:12.015072,2.28095748,.7310406,63.4649,356.1810,171.7246,356.2040,0,U,69570,999,5,.28088E-3,.6163E-4,.24751E-6
BLUEBIRD OBJECT B,2026-139B,2026-06-17T07:25:36.561216,15.11840682,.00047,53.0100,261.7105,274.6900,284.9500,0,U,69590,999,0,0,0,0
